{
  "type": "FeatureCollection",
  "features": [
    {
      "type": "Feature",
      "properties": {
        "norad_id": 66856,
        "name": "STARLINK-36072",
        "group": "last-30-days",
        "lat": 4.086182059429841,
        "lon": 61.758785278191816,
        "alt_km": 380.39866690985855,
        "timestamp": "2025-12-23T09:49:05.798122+00:00",
        "meta_object_name": "STARLINK-36072",
        "meta_object_id": "2025-281J",
        "meta_epoch": "2025-12-22T22:00:03.000096",
        "meta_mean_motion": 15.64393353,
        "meta_eccentricity": 0.00012078,
        "meta_inclination": 43.0004,
        "meta_ra_of_asc_node": 60.2981,
        "meta_arg_of_pericenter": 284.1182,
        "meta_mean_anomaly": 187.4761,
        "meta_ephemeris_type": 0,
        "meta_classification_type": "U",
        "meta_norad_cat_id": 66856,
        "meta_element_set_no": 999,
        "meta_rev_at_epoch": 302,
        "meta_bstar": -0.023424487,
        "meta_mean_motion_dot": -0.02027171,
        "meta_mean_motion_ddot": 0,
        "tle_line1": "1 66856U 25281J   25356.91670139 -.02027171  00000+0 -23424-1 0  9993",
        "tle_line2": "2 66856  43.0004  60.2981 0001207 284.1182 187.4761 15.64393353  3027"
      },
      "geometry": {
        "type": "Point",
        "coordinates": [
          61.758785278191816,
          4.086182059429841
        ]
      }
    },
    {
      "type": "Feature",
      "properties": {
        "norad_id": 66857,
        "name": "STARLINK-36083",
        "group": "last-30-days",
        "lat": 5.387614636773661,
        "lon": 63.16607081484976,
        "alt_km": 380.31535043340773,
        "timestamp": "2025-12-23T09:49:05.798134+00:00",
        "meta_object_name": "STARLINK-36083",
        "meta_object_id": "2025-281K",
        "meta_epoch": "2025-12-22T22:00:03.000096",
        "meta_mean_motion": 15.64390796,
        "meta_eccentricity": 0.00010813,
        "meta_inclination": 43.0004,
        "meta_ra_of_asc_node": 60.2935,
        "meta_arg_of_pericenter": 281.6755,
        "meta_mean_anomaly": 191.8356,
        "meta_ephemeris_type": 0,
        "meta_classification_type": "U",
        "meta_norad_cat_id": 66857,
        "meta_element_set_no": 999,
        "meta_rev_at_epoch": 302,
        "meta_bstar": -0.023363815,
        "meta_mean_motion_dot": -0.02022294,
        "meta_mean_motion_ddot": 0,
        "tle_line1": "1 66857U 25281K   25356.91670139 -.02022294  00000+0 -23364-1 0  9998",
        "tle_line2": "2 66857  43.0004  60.2935 0001081 281.6755 191.8356 15.64390796  3022"
      },
      "geometry": {
        "type": "Point",
        "coordinates": [
          63.16607081484976,
          5.387614636773661
        ]
      }
    },
    {
      "type": "Feature",
      "properties": {
        "norad_id": 66858,
        "name": "STARLINK-35118",
        "group": "last-30-days",
        "lat": 6.687180728773735,
        "lon": 64.5801032086403,
        "alt_km": 380.13365882999096,
        "timestamp": "2025-12-23T09:49:05.798146+00:00",
        "meta_object_name": "STARLINK-35118",
        "meta_object_id": "2025-281L",
        "meta_epoch": "2025-12-22T22:00:03.000096",
        "meta_mean_motion": 15.64394598,
        "meta_eccentricity": 0.0001161,
        "meta_inclination": 43.0006,
        "meta_ra_of_asc_node": 60.2881,
        "meta_arg_of_pericenter": 282.8062,
        "meta_mean_anomaly": 192.6202,
        "meta_ephemeris_type": 0,
        "meta_classification_type": "U",
        "meta_norad_cat_id": 66858,
        "meta_element_set_no": 999,
        "meta_rev_at_epoch": 281,
        "meta_bstar": -0.023421596,
        "meta_mean_motion_dot": -0.02027005,
        "meta_mean_motion_ddot": 0,
        "tle_line1": "1 66858U 25281L   25356.91670139 -.02027005  00000+0 -23422-1 0  9999",
        "tle_line2": "2 66858  43.0006  60.2881 0001161 282.8062 192.6202 15.64394598  2817"
      },
      "geometry": {
        "type": "Point",
        "coordinates": [
          64.5801032086403,
          6.687180728773735
        ]
      }
    },
    {
      "type": "Feature",
      "properties": {
        "norad_id": 66859,
        "name": "STARLINK-35646",
        "group": "last-30-days",
        "lat": 7.98217726694757,
        "lon": 66.00221937006906,
        "alt_km": 379.96835038768313,
        "timestamp": "2025-12-23T09:49:05.798158+00:00",
        "meta_object_name": "STARLINK-35646",
        "meta_object_id": "2025-281M",
        "meta_epoch": "2025-12-22T22:00:03.000096",
        "meta_mean_motion": 15.64395216,
        "meta_eccentricity": 0.00011746,
        "meta_inclination": 43.0005,
        "meta_ra_of_asc_node": 60.2837,
        "meta_arg_of_pericenter": 283.2095,
        "meta_mean_anomaly": 194.1328,
        "meta_ephemeris_type": 0,
        "meta_classification_type": "U",
        "meta_norad_cat_id": 66859,
        "meta_element_set_no": 999,
        "meta_rev_at_epoch": 302,
        "meta_bstar": -0.023420959,
        "meta_mean_motion_dot": -0.02027011,
        "meta_mean_motion_ddot": 0,
        "tle_line1": "1 66859U 25281M   25356.91670139 -.02027011  00000+0 -23421-1 0  9996",
        "tle_line2": "2 66859  43.0005  60.2837 0001174 283.2095 194.1328 15.64395216  3021"
      },
      "geometry": {
        "type": "Point",
        "coordinates": [
          66.00221937006906,
          7.98217726694757
        ]
      }
    },
    {
      "type": "Feature",
      "properties": {
        "norad_id": 66860,
        "name": "STARLINK-35987",
        "group": "last-30-days",
        "lat": 14.365880320005015,
        "lon": 73.27694207164329,
        "alt_km": 379.2108028664825,
        "timestamp": "2025-12-23T09:49:05.798169+00:00",
        "meta_object_name": "STARLINK-35987",
        "meta_object_id": "2025-281N",
        "meta_epoch": "2025-12-22T22:00:03.000096",
        "meta_mean_motion": 15.64391684,
        "meta_eccentricity": 0.00011513,
        "meta_inclination": 43.0007,
        "meta_ra_of_asc_node": 60.26,
        "meta_arg_of_pericenter": 282.2079,
        "meta_mean_anomaly": 204.7247,
        "meta_ephemeris_type": 0,
        "meta_classification_type": "U",
        "meta_norad_cat_id": 66860,
        "meta_element_set_no": 999,
        "meta_rev_at_epoch": 302,
        "meta_bstar": -0.023416932,
        "meta_mean_motion_dot": -0.02026436,
        "meta_mean_motion_ddot": 0,
        "tle_line1": "1 66860U 25281N   25356.91670139 -.02026436  00000+0 -23417-1 0  9993",
        "tle_line2": "2 66860  43.0007  60.2600 0001151 282.2079 204.7247 15.64391684  3022"
      },
      "geometry": {
        "type": "Point",
        "coordinates": [
          73.27694207164329,
          14.365880320005015
        ]
      }
    },
    {
      "type": "Feature",
      "properties": {
        "norad_id": 66861,
        "name": "STARLINK-35991",
        "group": "last-30-days",
        "lat": 10.557025279515344,
        "lon": 68.87558986273783,
        "alt_km": 379.72019558493866,
        "timestamp": "2025-12-23T09:49:05.798179+00:00",
        "meta_object_name": "STARLINK-35991",
        "meta_object_id": "2025-281P",
        "meta_epoch": "2025-12-22T22:00:03.000096",
        "meta_mean_motion": 15.64392351,
        "meta_eccentricity": 0.00012223,
        "meta_inclination": 43,
        "meta_ra_of_asc_node": 60.2747,
        "meta_arg_of_pericenter": 280.6286,
        "meta_mean_anomaly": 200.5519,
        "meta_ephemeris_type": 0,
        "meta_classification_type": "U",
        "meta_norad_cat_id": 66861,
        "meta_element_set_no": 999,
        "meta_rev_at_epoch": 302,
        "meta_bstar": -0.023408567,
        "meta_mean_motion_dot": -0.02025905,
        "meta_mean_motion_ddot": 0,
        "tle_line1": "1 66861U 25281P   25356.91670139 -.02025905  00000+0 -23409-1 0  9995",
        "tle_line2": "2 66861  43.0000  60.2747 0001222 280.6286 200.5519 15.64392351  3027"
      },
      "geometry": {
        "type": "Point",
        "coordinates": [
          68.87558986273783,
          10.557025279515344
        ]
      }
    },
    {
      "type": "Feature",
      "properties": {
        "norad_id": 66862,
        "name": "STARLINK-35974",
        "group": "last-30-days",
        "lat": 9.271492542529753,
        "lon": 67.4323878441808,
        "alt_km": 379.8008548695252,
        "timestamp": "2025-12-23T09:49:05.798189+00:00",
        "meta_object_name": "STARLINK-35974",
        "meta_object_id": "2025-281Q",
        "meta_epoch": "2025-12-22T22:00:03.000096",
        "meta_mean_motion": 15.64391147,
        "meta_eccentricity": 0.00011383,
        "meta_inclination": 43.0003,
        "meta_ra_of_asc_node": 60.2791,
        "meta_arg_of_pericenter": 284.0927,
        "meta_mean_anomaly": 195.171,
        "meta_ephemeris_type": 0,
        "meta_classification_type": "U",
        "meta_norad_cat_id": 66862,
        "meta_element_set_no": 999,
        "meta_rev_at_epoch": 292,
        "meta_bstar": -0.023397323,
        "meta_mean_motion_dot": -0.02024902,
        "meta_mean_motion_ddot": 0,
        "tle_line1": "1 66862U 25281Q   25356.91670139 -.02024902  00000+0 -23397-1 0  9998",
        "tle_line2": "2 66862  43.0003  60.2791 0001138 284.0927 195.1710 15.64391147  2928"
      },
      "geometry": {
        "type": "Point",
        "coordinates": [
          67.4323878441808,
          9.271492542529753
        ]
      }
    }
  ]
}